ONEWEB-0377             
1 49303U 21090AA  23283.57820430  .00000071  00000+0  14303-3 0  9999
2 49303  87.9140 109.6725 0001511  80.0146 280.1157 13.20772843101077
ONEWEB-0378             
1 49304U 21090AB  23283.76864903  .00000076  00000+0  15400-3 0  9998
2 49304  87.9153 109.6326 0001928  93.5446 266.5908 13.20773243101687
ONEWEB-0379             
1 49305U 21090AC  23283.56334875  .00000272  00000+0  69993-3 0  9991
2 49305  87.8954 124.9192 0001805  82.2939 277.8395 13.14504464100036
ONEWEB-0380             
1 49306U 21090AD  23283.57072582  .00000059  00000+0  11575-3 0  9993
2 49306  87.9211 140.1507 0001574  79.4348 280.6962 13.19723684 98365
ONEWEB-0381             
1 49307U 21090AE  23283.56349088  .00000040  00000+0  67329-4 0  9990
2 49307  87.9201 109.6310 0001541  87.9159 272.2151 13.20771735101684
ONEWEB-0382             
1 49308U 21090AF  23283.55084322  .00000128  00000+0  28406-3 0  9996
2 49308  87.9141 109.6762 0001836 100.8631 259.2709 13.20771905101689
ONEWEB-0383             
1 49309U 21090AG  23283.55701737  .00000293  00000+0  75527-3 0  9992
2 49309  87.8962 124.9046 0001894  86.9797 273.1549 13.14502001100055
ONEWEB-0384             
1 49310U 21090AH  23283.77391512  .00000101  00000+0  21719-3 0  9996
2 49310  87.9151 109.6313 0001977 106.0955 254.0396 13.20772788101728
